{"type": "FeatureCollection", "name": "TUILE_MFFP_FIXTURE_ZEC_FIXTURE", "meta": {"test_fixture": true, "description": "Fixture pytest Ordre n°46 — AUCUNE donnée réelle", "region_code": "ZEC_FIXTURE", "produced_by": "test_phase_xxiv_multi_upload_omega.py"}, "features": [{"type": "Feature", "geometry": {"type": "Point", "coordinates": [0, 0]}, "properties": {"fixture_id": "ZEC_FIXTURE-0"}}, {"type": "Feature", "geometry": {"type": "Point", "coordinates": [0, 0]}, "properties": {"fixture_id": "ZEC_FIXTURE-1"}}, {"type": "Feature", "geometry": {"type": "Point", "coordinates": [0, 0]}, "properties": {"fixture_id": "ZEC_FIXTURE-2"}}, {"type": "Feature", "geometry": {"type": "Point", "coordinates": [0, 0]}, "properties": {"fixture_id": "ZEC_FIXTURE-3"}}, {"type": "Feature", "geometry": {"type": "Point", "coordinates": [0, 0]}, "properties": {"fixture_id": "ZEC_FIXTURE-4"}}, {"type": "Feature", "geometry": {"type": "Point", "coordinates": [0, 0]}, "properties": {"fixture_id": "ZEC_FIXTURE-5"}}, {"type": "Feature", "geometry": {"type": "Point", "coordinates": [0, 0]}, "properties": {"fixture_id": "ZEC_FIXTURE-6"}}, {"type": "Feature", "geometry": {"type": "Point", "coordinates": [0, 0]}, "properties": {"fixture_id": "ZEC_FIXTURE-7"}}, {"type": "Feature", "geometry": {"type": "Point", "coordinates": [0, 0]}, "properties": {"fixture_id": "ZEC_FIXTURE-8"}}, {"type": "Feature", "geometry": {"type": "Point", "coordinates": [0, 0]}, "properties": {"fixture_id": "ZEC_FIXTURE-9"}}, {"type": "Feature", "geometry": {"type": "Point", "coordinates": [0, 0]}, "properties": {"fixture_id": "ZEC_FIXTURE-10"}}, {"type": "Feature", "geometry": {"type": "Point", "coordinates": [0, 0]}, "properties": {"fixture_id": "ZEC_FIXTURE-11"}}, {"type": "Feature", "geometry": {"type": "Point", "coordinates": [0, 0]}, "properties": {"fixture_id": "ZEC_FIXTURE-12"}}, {"type": "Feature", "geometry": {"type": "Point", "coordinates": [0, 0]}, "properties": {"fixture_id": "ZEC_FIXTURE-13"}}, {"type": "Feature", "geometry": {"type": "Point", "coordinates": [0, 0]}, "properties": {"fixture_id": "ZEC_FIXTURE-14"}}, {"type": "Feature", "geometry": {"type": "Point", "coordinates": [0, 0]}, "properties": {"fixture_id": "ZEC_FIXTURE-15"}}, {"type": "Feature", "geometry": {"type": "Point", "coordinates": [0, 0]}, "properties": {"fixture_id": "ZEC_FIXTURE-16"}}, {"type": "Feature", "geometry": {"type": "Point", "coordinates": [0, 0]}, "properties": {"fixture_id": "ZEC_FIXTURE-17"}}, {"type": "Feature", "geometry": {"type": "Point", "coordinates": [0, 0]}, "properties": {"fixture_id": "ZEC_FIXTURE-18"}}, {"type": "Feature", "geometry": {"type": "Point", "coordinates": [0, 0]}, "properties": {"fixture_id": "ZEC_FIXTURE-19"}}, {"type": "Feature", "geometry": {"type": "Point", "coordinates": [0, 0]}, "properties": {"fixture_id": "ZEC_FIXTURE-20"}}, {"type": "Feature", "geometry": {"type": "Point", "coordinates": [0, 0]}, "properties": {"fixture_id": "ZEC_FIXTURE-21"}}, {"type": "Feature", "geometry": {"type": "Point", "coordinates": [0, 0]}, "properties": {"fixture_id": "ZEC_FIXTURE-22"}}, {"type": "Feature", "geometry": {"type": "Point", "coordinates": [0, 0]}, "properties": {"fixture_id": "ZEC_FIXTURE-23"}}, {"type": "Feature", "geometry": {"type": "Point", "coordinates": [0, 0]}, "properties": {"fixture_id": "ZEC_FIXTURE-24"}}, {"type": "Feature", "geometry": {"type": "Point", "coordinates": [0, 0]}, "properties": {"fixture_id": "ZEC_FIXTURE-25"}}, {"type": "Feature", "geometry": {"type": "Point", "coordinates": [0, 0]}, "properties": {"fixture_id": "ZEC_FIXTURE-26"}}, {"type": "Feature", "geometry": {"type": "Point", "coordinates": [0, 0]}, "properties": {"fixture_id": "ZEC_FIXTURE-27"}}, {"type": "Feature", "geometry": {"type": "Point", "coordinates": [0, 0]}, "properties": {"fixture_id": "ZEC_FIXTURE-28"}}, {"type": "Feature", "geometry": {"type": "Point", "coordinates": [0, 0]}, "properties": {"fixture_id": "ZEC_FIXTURE-29"}}, {"type": "Feature", "geometry": {"type": "Point", "coordinates": [0, 0]}, "properties": {"fixture_id": "ZEC_FIXTURE-30"}}, {"type": "Feature", "geometry": {"type": "Point", "coordinates": [0, 0]}, "properties": {"fixture_id": "ZEC_FIXTURE-31"}}, {"type": "Feature", "geometry": {"type": "Point", "coordinates": [0, 0]}, "properties": {"fixture_id": "ZEC_FIXTURE-32"}}, {"type": "Feature", "geometry": {"type": "Point", "coordinates": [0, 0]}, "properties": {"fixture_id": "ZEC_FIXTURE-33"}}, {"type": "Feature", "geometry": {"type": "Point", "coordinates": [0, 0]}, "properties": {"fixture_id": "ZEC_FIXTURE-34"}}, {"type": "Feature", "geometry": {"type": "Point", "coordinates": [0, 0]}, "properties": {"fixture_id": "ZEC_FIXTURE-35"}}, {"type": "Feature", "geometry": {"type": "Point", "coordinates": [0, 0]}, "properties": {"fixture_id": "ZEC_FIXTURE-36"}}, {"type": "Feature", "geometry": {"type": "Point", "coordinates": [0, 0]}, "properties": {"fixture_id": "ZEC_FIXTURE-37"}}, {"type": "Feature", "geometry": {"type": "Point", "coordinates": [0, 0]}, "properties": {"fixture_id": "ZEC_FIXTURE-38"}}, {"type": "Feature", "geometry": {"type": "Point", "coordinates": [0, 0]}, "properties": {"fixture_id": "ZEC_FIXTURE-39"}}, {"type": "Feature", "geometry": {"type": "Point", "coordinates": [0, 0]}, "properties": {"fixture_id": "ZEC_FIXTURE-40"}}, {"type": "Feature", "geometry": {"type": "Point", "coordinates": [0, 0]}, "properties": {"fixture_id": "ZEC_FIXTURE-41"}}, {"type": "Feature", "geometry": {"type": "Point", "coordinates": [0, 0]}, "properties": {"fixture_id": "ZEC_FIXTURE-42"}}, {"type": "Feature", "geometry": {"type": "Point", "coordinates": [0, 0]}, "properties": {"fixture_id": "ZEC_FIXTURE-43"}}, {"type": "Feature", "geometry": {"type": "Point", "coordinates": [0, 0]}, "properties": {"fixture_id": "ZEC_FIXTURE-44"}}, {"type": "Feature", "geometry": {"type": "Point", "coordinates": [0, 0]}, "properties": {"fixture_id": "ZEC_FIXTURE-45"}}, {"type": "Feature", "geometry": {"type": "Point", "coordinates": [0, 0]}, "properties": {"fixture_id": "ZEC_FIXTURE-46"}}, {"type": "Feature", "geometry": {"type": "Point", "coordinates": [0, 0]}, "properties": {"fixture_id": "ZEC_FIXTURE-47"}}, {"type": "Feature", "geometry": {"type": "Point", "coordinates": [0, 0]}, "properties": {"fixture_id": "ZEC_FIXTURE-48"}}, {"type": "Feature", "geometry": {"type": "Point", "coordinates": [0, 0]}, "properties": {"fixture_id": "ZEC_FIXTURE-49"}}]}