{
  "type": "FeatureCollection",
  "name": "corridors_species_ia_p0_omega",
  "crs": {
    "type": "name",
    "properties": {
      "name": "urn:ogc:def:crs:OGC:1.3:CRS84"
    }
  },
  "_doctrine": "P22ΩΩ_IA_CORRIDORS_P0_Ω · COMMANDANT STEEVE-MAX · 2026-05-23",
  "_generation_mode": "RUNTIME_DYNAMIC",
  "_engine_generator": "ENGINE-IA-CORRIDORS-ORGANIC-Ω · V2.0-PHASE-XI-SUPRA-N-Ω-NETWORK_LOCKED-2026-04",
  "_engine_function": "ia_fusion(terrain_v10, vision_map, species_behavior, ...)",
  "_radius_functional_m": {
    "min": 420.0,
    "max": 780.0
  },
  "_segment_max_m": 20.0,
  "_angle_max_deg": 45.0,
  "_curvature_model": "catmull_rom_organic_v3",
  "_species_supported": [
    "chevreuil",
    "orignal",
    "ours_noir",
    "coyote",
    "dindon_sauvage"
  ],
  "_feature_schema": {
    "type": "Feature",
    "geometry": {
      "type": "LineString",
      "coordinates": "[[lng, lat], ...]"
    },
    "properties": {
      "id": "str (UUID)",
      "species": "str (one of: chevreuil,orignal,ours_noir,coyote,dindon_sauvage)",
      "hierarchy": "veine_principale | veine_secondaire | capillaire",
      "intensity": "float 0.0-1.0",
      "thickness_px": "float 1.2-3.0",
      "season": "printemps | ete | automne | hiver",
      "month": "int 1-12",
      "anchors": "[{node_a, node_b, type, attractivity}]",
      "ia_fusion_score": "float (terrain×vision×behavior)",
      "render_mode": "density_mode | heat_mode | veine_animale_mode",
      "_engine": "ENGINE-IA-CORRIDORS-ORGANIC-Ω",
      "_doctrine": "P22ΩΩ_IA_CORRIDORS_P0_Ω"
    }
  },
  "features": []
}